GLOBALSTAR M068         
1 32266U 07048D   26002.86734296 -.00000002  00000+0  56667-3 0  9998
2 32266  51.9897  53.5571 0001149 193.7764 337.6469 12.62837423842783
GLOBALSTAR M079         
1 37188U 10054A   26002.88324627 -.00000061  00000+0  23672-3 0  9997
2 37188  52.0030 251.8821 0001007  53.2728  27.2756 12.62269617701673
GLOBALSTAR M074         
1 37189U 10054B   26002.97421301 -.00000048  00000+0  31314-3 0  9992
2 37189  52.0006 250.8967 0001056  72.8466 300.8286 12.62264995702298
GLOBALSTAR M076         
1 37190U 10054C   26003.00079212 -.00000060  00000+0  24425-3 0  9998
2 37190  52.0022 251.0058 0001172  66.2982 307.3610 12.62268808702011
GLOBALSTAR M077         
1 37191U 10054D   26002.95148769 -.00000028  00000+0  90900-3 0  9991
2 37191  51.9950 238.9960 0001588  60.0312  39.9656 11.68177045701830
GLOBALSTAR M075         
1 37192U 10054E   25358.21427079 -.00000088  00000+0  85706-4 0  9993
2 37192  52.0022 322.9423 0000480 109.7567 352.3949 12.62261317699849
GLOBALSTAR M073         
1 37193U 10054F   26002.96891063 -.00000070  00000+0  18709-3 0  9990
2 37193  52.0035 207.2206 0001196  73.0405  95.0796 12.62268794703064
GLOBALSTAR M083         
1 37739U 11033A   26002.64597767 -.00000097  00000+0  36352-4 0  9997
2 37739  51.9841 156.6566 0000973  88.2422 353.6138 12.62266387672040
GLOBALSTAR M088         
1 37740U 11033B   26002.87697024 -.00000081  00000+0  12576-3 0  9995
2 37740  52.0230  61.9805 0000505 133.7873  37.7076 12.62271302667618
GLOBALSTAR M091         
1 37741U 11033C   26002.81129681 -.00000078  00000+0  14470-3 0  9990
2 37741  52.0015  25.3912 0000139 122.3501  49.6971 12.62268480668393
GLOBALSTAR M085         
1 37742U 11033D   26002.63943510 -.00000093  00000+0  59136-4 0  9992
2 37742  52.0150 337.0620 0000355  17.3470 153.9677 12.62267624668886
GLOBALSTAR M081         
1 37743U 11033E   25351.59018587 -.00000087  00000+0  92331-4 0  9998
2 37743  51.9980  28.5496 0000222  94.7932  71.3857 12.62270971667009
GLOBALSTAR M089         
1 37744U 11033F   26003.00217626 -.00000064  00000+0  22463-3 0  9998
2 37744  51.9946 292.7729 0000855  74.3361   7.0233 12.62263198669928
GLOBALSTAR M084         
1 38040U 11080A   26002.61926072 -.00000102  00000+0  12539-4 0  9995
2 38040  51.9994 161.3308 0001294 101.3046 338.3994 12.62267157647855
GLOBALSTAR M080         
1 38041U 11080B   26002.75435938 -.00000094  00000+0  51935-4 0  9990
2 38041  52.0045 162.5806 0000591 114.0623 349.6828 12.62265609647998
GLOBALSTAR M082         
1 38042U 11080C   26002.70015056 -.00000115  00000+0 -65344-4 0  9995
2 38042  52.0069 118.2284 0000554 126.7635  20.2396 12.62266461648692
GLOBALSTAR M092         
1 38043U 11080D   26002.90269119 -.00000073  00000+0  17151-3 0  9993
2 38043  52.0060 208.0010 0001035  83.9894  23.5863 12.62269127647174
GLOBALSTAR M090         
1 38044U 11080E   26002.73072714 -.00000108  00000+0 -22388-4 0  9997
2 38044  52.0117 112.0381 0000697 105.8853  58.9680 12.62265625648815
GLOBALSTAR M086         
1 38045U 11080F   26002.66996931 -.00000099  00000+0  23949-4 0  9998
2 38045  51.9893 112.4226 0001514  68.2780  71.2844 12.62281752648759
GLOBALSTAR M097         
1 39072U 13005A   26002.58845007 -.00000090  00000+0  79492-4 0  9991
2 39072  52.0068  27.4322 0000321  75.1131 284.9771 12.62267810595998
GLOBALSTAR M093         
1 39073U 13005B   26002.48312866 -.00000092  00000+0  66416-4 0  9997
2 39073  52.0130  21.0378 0000345  27.2056 332.8829 12.62271326595938
GLOBALSTAR M094         
1 39074U 13005C   26002.95816366 -.00000089  00000+0  85131-4 0  9995
2 39074  51.9974 293.8753 0000747  38.0172 322.0747 12.62265511597609
GLOBALSTAR M096         
1 39075U 13005D   26002.41687609 -.00000099  00000+0  28683-4 0  9993
2 39075  52.0101 344.1906 0000396  22.0243 338.0641 12.62269634596458
GLOBALSTAR M078         
1 39076U 13005E   26002.62838575 -.00000115  00000+0 -60271-4 0  9996
2 39076  51.9887  67.7872 0000580 234.6470 125.4343 12.62271099595102
GLOBALSTAR M095         
1 39077U 13005F   26002.41715983 -.00000086  00000+0  10096-3 0  9996
2 39077  52.0096  65.7993 0000054 149.7230 210.3640 12.62267511594933
GLOBALSTAR M087         
1 52888U 22064A   26002.90537635 -.00000075  00000+0  15920-3 0  9995
2 52888  51.9972 205.6464 0000977  70.7895 289.3077 12.62262287170262
